[{"OBJECT_NAME":"BEIDOU-3 M22","OBJECT_ID":"2019-078A","EPOCH":"2025-03-09T01:59:15.752544","MEAN_MOTION":1.86231986,"ECCENTRICITY":0.0007189,"INCLINATION":54.3495,"RA_OF_ASC_NODE":316.1398,"ARG_OF_PERICENTER":28.0304,"MEAN_ANOMALY":332.0556,"EPHEMERIS_TYPE":0,"CLASSIFICATION_TYPE":"U","NORAD_CAT_ID":44793,"ELEMENT_SET_NO":999,"REV_AT_EPOCH":3599,"BSTAR":0,"MEAN_MOTION_DOT":-6.9e-7,"MEAN_MOTION_DDOT":0},{"OBJECT_NAME":"BEIDOU-3 M21","OBJECT_ID":"2019-078B","EPOCH":"2025-03-09T05:08:08.600352","MEAN_MOTION":1.8622769,"ECCENTRICITY":0.0005231,"INCLINATION":54.3228,"RA_OF_ASC_NODE":316.1056,"ARG_OF_PERICENTER":22.5587,"MEAN_ANOMALY":337.512,"EPHEMERIS_TYPE":0,"CLASSIFICATION_TYPE":"U","NORAD_CAT_ID":44794,"ELEMENT_SET_NO":999,"REV_AT_EPOCH":3599,"BSTAR":0,"MEAN_MOTION_DOT":-6.9e-7,"MEAN_MOTION_DDOT":0},{"OBJECT_NAME":"ELEKTRO-L 3","OBJECT_ID":"2019-095A","EPOCH":"2025-03-09T21:42:38.716992","MEAN_MOTION":1.00271991,"ECCENTRICITY":0.0001731,"INCLINATION":0.0575,"RA_OF_ASC_NODE":85.2119,"ARG_OF_PERICENTER":242.3122,"MEAN_ANOMALY":241.9321,"EPHEMERIS_TYPE":0,"CLASSIFICATION_TYPE":"U","NORAD_CAT_ID":44903,"ELEMENT_SET_NO":999,"REV_AT_EPOCH":1905,"BSTAR":0,"MEAN_MOTION_DOT":-1.14e-6,"MEAN_MOTION_DDOT":0},{"OBJECT_NAME":"GPS BIII-3","OBJECT_ID":"2020-041A","EPOCH":"2025-03-09T19:26:50.891136","MEAN_MOTION":2.00568219,"ECCENTRICITY":0.005114,"INCLINATION":56.3433,"RA_OF_ASC_NODE":47.0173,"ARG_OF_PERICENTER":199.8124,"MEAN_ANOMALY":345.09,"EPHEMERIS_TYPE":0,"CLASSIFICATION_TYPE":"U","NORAD_CAT_ID":45854,"ELEMENT_SET_NO":999,"REV_AT_EPOCH":3472,"BSTAR":0,"MEAN_MOTION_DOT":-4.5e-7,"MEAN_MOTION_DDOT":0},{"OBJECT_NAME":"COSMOS 2547","OBJECT_ID":"2020-075A","EPOCH":"2025-03-08T21:42:34.351200","MEAN_MOTION":2.1310303,"ECCENTRICITY":0.0006496,"INCLINATION":64.5983,"RA_OF_ASC_NODE":208.0091,"ARG_OF_PERICENTER":232.6152,"MEAN_ANOMALY":127.2936,"EPHEMERIS_TYPE":0,"CLASSIFICATION_TYPE":"U","NORAD_CAT_ID":46805,"ELEMENT_SET_NO":999,"REV_AT_EPOCH":3399,"BSTAR":0,"MEAN_MOTION_DOT":9.0e-8,"MEAN_MOTION_DDOT":0},{"OBJECT_NAME":"GPS BIII-4","OBJECT_ID":"2020-078A","EPOCH":"2025-03-05T20:10:28.557984","MEAN_MOTION":2.00558631,"ECCENTRICITY":0.005492,"INCLINATION":54.0924,"RA_OF_ASC_NODE":229.7779,"ARG_OF_PERICENTER":198.7972,"MEAN_ANOMALY":330.8735,"EPHEMERIS_TYPE":0,"CLASSIFICATION_TYPE":"U","NORAD_CAT_ID":46826,"ELEMENT_SET_NO":999,"REV_AT_EPOCH":3211,"BSTAR":0,"MEAN_MOTION_DOT":5.8e-7,"MEAN_MOTION_DDOT":0},{"OBJECT_NAME":"GSAT0223 (GALILEO 27)","OBJECT_ID":"2021-116A","EPOCH":"2025-03-08T09:28:18.981696","MEAN_MOTION":1.70475345,"ECCENTRICITY":0.0002103,"INCLINATION":57.2776,"RA_OF_ASC_NODE":354.2471,"ARG_OF_PERICENTER":279.8168,"MEAN_ANOMALY":172.9328,"EPHEMERIS_TYPE":0,"CLASSIFICATION_TYPE":"U","NORAD_CAT_ID":49809,"ELEMENT_SET_NO":999,"REV_AT_EPOCH":2024,"BSTAR":0,"MEAN_MOTION_DOT":-1.11e-6,"MEAN_MOTION_DDOT":0},{"OBJECT_NAME":"GSAT0224 (GALILEO 28)","OBJECT_ID":"2021-116B","EPOCH":"2025-03-06T11:27:56.931264","MEAN_MOTION":1.70475249,"ECCENTRICITY":0.0001886,"INCLINATION":57.2788,"RA_OF_ASC_NODE":354.2974,"ARG_OF_PERICENTER":295.2065,"MEAN_ANOMALY":173.6316,"EPHEMERIS_TYPE":0,"CLASSIFICATION_TYPE":"U","NORAD_CAT_ID":49810,"ELEMENT_SET_NO":999,"REV_AT_EPOCH":2023,"BSTAR":0,"MEAN_MOTION_DOT":-1.04e-6,"MEAN_MOTION_DDOT":0},{"OBJECT_NAME":"GOES 18","OBJECT_ID":"2022-021A","EPOCH":"2025-03-09T17:30:34.415136","MEAN_MOTION":1.00270521,"ECCENTRICITY":1.07e-5,"INCLINATION":0.0222,"RA_OF_ASC_NODE":334.1895,"ARG_OF_PERICENTER":25.6698,"MEAN_ANOMALY":293.4186,"EPHEMERIS_TYPE":0,"CLASSIFICATION_TYPE":"U","NORAD_CAT_ID":51850,"ELEMENT_SET_NO":999,"REV_AT_EPOCH":1114,"BSTAR":0,"MEAN_MOTION_DOT":7.9e-7,"MEAN_MOTION_DDOT":0},{"OBJECT_NAME":"COSMOS 2557 (706K)","OBJECT_ID":"2022-075A","EPOCH":"2025-03-09T01:43:06.576096","MEAN_MOTION":2.13101801,"ECCENTRICITY":0.0012125,"INCLINATION":64.5548,"RA_OF_ASC_NODE":330.8288,"ARG_OF_PERICENTER":285.63,"MEAN_ANOMALY":74.2763,"EPHEMERIS_TYPE":0,"CLASSIFICATION_TYPE":"U","NORAD_CAT_ID":52984,"ELEMENT_SET_NO":999,"REV_AT_EPOCH":2080,"BSTAR":0,"MEAN_MOTION_DOT":-7.6e-7,"MEAN_MOTION_DDOT":0},{"OBJECT_NAME":"METEOR-M2 3","OBJECT_ID":"2023-091A","EPOCH":"2025-03-09T20:47:56.610816","MEAN_MOTION":14.23981836,"ECCENTRICITY":0.0005094,"INCLINATION":98.6741,"RA_OF_ASC_NODE":126.6467,"ARG_OF_PERICENTER":83.4954,"MEAN_ANOMALY":276.6804,"EPHEMERIS_TYPE":0,"CLASSIFICATION_TYPE":"U","NORAD_CAT_ID":57166,"ELEMENT_SET_NO":999,"REV_AT_EPOCH":8843,"BSTAR":3.8332e-5,"MEAN_MOTION_DOT":4.4e-7,"MEAN_MOTION_DDOT":0},{"OBJECT_NAME":"COSMOS 2569 (703K)","OBJECT_ID":"2023-114A","EPOCH":"2025-03-09T16:32:26.686464","MEAN_MOTION":2.13104058,"ECCENTRICITY":0.0012853,"INCLINATION":65.0437,"RA_OF_ASC_NODE":88.3151,"ARG_OF_PERICENTER":292.6879,"MEAN_ANOMALY":67.2322,"EPHEMERIS_TYPE":0,"CLASSIFICATION_TYPE":"U","NORAD_CAT_ID":57517,"ELEMENT_SET_NO":999,"REV_AT_EPOCH":1236,"BSTAR":0,"MEAN_MOTION_DOT":4.3e-7,"MEAN_MOTION_DDOT":0},{"OBJECT_NAME":"METEOR-M2 4","OBJECT_ID":"2024-039A","EPOCH":"2025-03-09T21:55:35.660352","MEAN_MOTION":14.22342851,"ECCENTRICITY":0.000821,"INCLINATION":98.6382,"RA_OF_ASC_NODE":30.8094,"ARG_OF_PERICENTER":76.0447,"MEAN_ANOMALY":284.1643,"EPHEMERIS_TYPE":0,"CLASSIFICATION_TYPE":"U","NORAD_CAT_ID":59051,"ELEMENT_SET_NO":999,"REV_AT_EPOCH":5326,"BSTAR":6.514e-5,"MEAN_MOTION_DOT":1.02e-6,"MEAN_MOTION_DDOT":0},{"OBJECT_NAME":"GSAT0225 (GALILEO 29)","OBJECT_ID":"2024-079A","EPOCH":"2025-03-03T23:09:20.873088","MEAN_MOTION":1.7047484,"ECCENTRICITY":0.0003099,"INCLINATION":54.8337,"RA_OF_ASC_NODE":114.2343,"ARG_OF_PERICENTER":245.2285,"MEAN_ANOMALY":113.0483,"EPHEMERIS_TYPE":0,"CLASSIFICATION_TYPE":"U","NORAD_CAT_ID":59598,"ELEMENT_SET_NO":999,"REV_AT_EPOCH":529,"BSTAR":0,"MEAN_MOTION_DOT":1.1e-7,"MEAN_MOTION_DDOT":0},{"OBJECT_NAME":"GSAT0227 (GALILEO 30)","OBJECT_ID":"2024-079C","EPOCH":"2025-03-08T20:14:56.676192","MEAN_MOTION":1.70474886,"ECCENTRICITY":5.18e-5,"INCLINATION":54.8318,"RA_OF_ASC_NODE":114.0976,"ARG_OF_PERICENTER":174.0193,"MEAN_ANOMALY":186.0524,"EPHEMERIS_TYPE":0,"CLASSIFICATION_TYPE":"U","NORAD_CAT_ID":59600,"ELEMENT_SET_NO":999,"REV_AT_EPOCH":543,"BSTAR":0,"MEAN_MOTION_DOT":0,"MEAN_MOTION_DDOT":0},{"OBJECT_NAME":"GSAT0232 (GALILEO 32)","OBJECT_ID":"2024-167A","EPOCH":"2025-03-08T11:45:56.780928","MEAN_MOTION":1.70473876,"ECCENTRICITY":0.0002482,"INCLINATION":55.3431,"RA_OF_ASC_NODE":234.0875,"ARG_OF_PERICENTER":181.7073,"MEAN_ANOMALY":156.6328,"EPHEMERIS_TYPE":0,"CLASSIFICATION_TYPE":"U","NORAD_CAT_ID":61182,"ELEMENT_SET_NO":999,"REV_AT_EPOCH":293,"BSTAR":0,"MEAN_MOTION_DOT":3.1e-7,"MEAN_MOTION_DDOT":0},{"OBJECT_NAME":"GSAT0226 (GALILEO 31)","OBJECT_ID":"2024-167B","EPOCH":"2025-03-09T12:28:11.293824","MEAN_MOTION":1.70474025,"ECCENTRICITY":0.0002028,"INCLINATION":55.3414,"RA_OF_ASC_NODE":234.0651,"ARG_OF_PERICENTER":122.873,"MEAN_ANOMALY":239.7468,"EPHEMERIS_TYPE":0,"CLASSIFICATION_TYPE":"U","NORAD_CAT_ID":61183,"ELEMENT_SET_NO":999,"REV_AT_EPOCH":293,"BSTAR":0,"MEAN_MOTION_DOT":2.2e-7,"MEAN_MOTION_DDOT":0}]
