BEIDOU-3 M22            
1 44793U 19078A   25068.08282121 -.00000069  00000+0  00000+0 0  9991
2 44793  54.3495 316.1398 0007189  28.0304 332.0556  1.86231986 35996
BEIDOU-3 M21            
1 44794U 19078B   25068.21398843 -.00000069  00000+0  00000+0 0  9996
2 44794  54.3228 316.1056 0005231  22.5587 337.5120  1.86227690 35994
ELEKTRO-L 3             
1 44903U 19095A   25068.90461478 -.00000114  00000+0  00000+0 0  9999
2 44903   0.0575  85.2119 0001731 242.3122 241.9321  1.00271991 19050
GPS BIII-3              
1 45854U 20041A   25068.81031124 -.00000045  00000+0  00000+0 0  9992
2 45854  56.3433  47.0173 0051140 199.8124 345.0900  2.00568219 34729
COSMOS 2547             
1 46805U 20075A   25067.90456425  .00000009  00000+0  00000+0 0  9999
2 46805  64.5983 208.0091 0006496 232.6152 127.2936  2.13103030 33993
GPS BIII-4              
1 46826U 20078A   25064.84060831  .00000058  00000+0  00000+0 0  9991
2 46826  54.0924 229.7779 0054920 198.7972 330.8735  2.00558631 32114
GSAT0223 (GALILEO 27)   
1 49809U 21116A   25067.39466414 -.00000111  00000+0  00000+0 0  9990
2 49809  57.2776 354.2471 0002103 279.8168 172.9328  1.70475345 20245
GSAT0224 (GALILEO 28)   
1 49810U 21116B   25065.47774226 -.00000104  00000+0  00000+0 0  9994
2 49810  57.2788 354.2974 0001886 295.2065 173.6316  1.70475249 20230
GOES 18                 
1 51850U 22021A   25068.72956499  .00000079  00000+0  00000+0 0  9992
2 51850   0.0222 334.1895 0000107  25.6698 293.4186  1.00270521 11142
COSMOS 2557 (706K)      
1 52984U 22075A   25068.07160389 -.00000076  00000+0  00000+0 0  9991
2 52984  64.5548 330.8288 0012125 285.6300  74.2763  2.13101801 20805
METEOR-M2 3             
1 57166U 23091A   25068.86662744  .00000044  00000+0  38332-4 0  9994
2 57166  98.6741 126.6467 0005094  83.4954 276.6804 14.23981836 88436
COSMOS 2569 (703K)      
1 57517U 23114A   25068.68919776  .00000043  00000+0  00000+0 0  9995
2 57517  65.0437  88.3151 0012853 292.6879  67.2322  2.13104058 12368
METEOR-M2 4             
1 59051U 24039A   25068.91360718  .00000102  00000+0  65140-4 0  9996
2 59051  98.6382  30.8094 0008210  76.0447 284.1643 14.22342851 53267
GSAT0225 (GALILEO 29)   
1 59598U 24079A   25062.96482492  .00000011  00000+0  00000+0 0  9997
2 59598  54.8337 114.2343 0003099 245.2285 113.0483  1.70474840  5296
GSAT0227 (GALILEO 30)   
1 59600U 24079C   25067.84371153  .00000000  00000+0  00000+0 0  9992
2 59600  54.8318 114.0976 0000518 174.0193 186.0524  1.70474886  5431
GSAT0232 (GALILEO 32)   
1 61182U 24167A   25067.49024052  .00000031  00000+0  00000+0 0  9996
2 61182  55.3431 234.0875 0002482 181.7073 156.6328  1.70473876  2931
GSAT0226 (GALILEO 31)   
1 61183U 24167B   25068.51957516  .00000022  00000+0  00000+0 0  9991
2 61183  55.3414 234.0651 0002028 122.8730 239.7468  1.70474025  2932
